[
    {
        "Altitude(m)": 714587.4210552606,
        "Argument of Periapsis(deg)": 0.009112096949301655,
        "Eccentricity": 0.0,
        "Inclination(deg)": 45.0,
        "Latitude(deg)": -37.17234944054121,
        "Longitude(deg)": -146.65656587063106,
        "Mean Anomaly(deg)": 238.31747331798465,
        "RAAN(deg)": 84.99139844683344,
        "Satellite Name": "Constellation 1 388",
        "Satellite Number": 388,
        "Semi-Major Axis(m)": 7083131.272910544,
        "Time(s)": 152
    },
    {
        "Altitude(m)": 714598.9947732341,
        "Argument of Periapsis(deg)": 0.009172044955547059,
        "Eccentricity": 0.0,
        "Inclination(deg)": 45.0,
        "Latitude(deg)": -37.20054197973497,
        "Longitude(deg)": -146.59347033691893,
        "Mean Anomaly(deg)": 238.37817445823458,
        "RAAN(deg)": 84.99134185766788,
        "Satellite Name": "Constellation 1 388",
        "Satellite Number": 388,
        "Semi-Major Axis(m)": 7083131.272910544,
        "Time(s)": 153
    },
    {
        "Altitude(m)": 714610.5541065511,
        "Argument of Periapsis(deg)": 0.009231992961792466,
        "Eccentricity": 0.0,
        "Inclination(deg)": 45.0,
        "Latitude(deg)": -37.22869619701096,
        "Longitude(deg)": -146.53032497763607,
        "Mean Anomaly(deg)": 238.43887559848451,
        "RAAN(deg)": 84.9912852685023,
        "Satellite Name": "Constellation 1 388",
        "Satellite Number": 388,
        "Semi-Major Axis(m)": 7083131.272910544,
        "Time(s)": 154
    },
    {
        "Altitude(m)": 714622.0990133819,
        "Argument of Periapsis(deg)": 0.009291940968037872,
        "Eccentricity": 0.0,
        "Inclination(deg)": 45.0,
        "Latitude(deg)": -37.256812025942565,
        "Longitude(deg)": -146.46712977259946,
        "Mean Anomaly(deg)": 238.4995767387344,
        "RAAN(deg)": 84.99122867933673,
        "Satellite Name": "Constellation 1 388",
        "Satellite Number": 388,
        "Semi-Major Axis(m)": 7083131.272910544,
        "Time(s)": 155
    },
    {
        "Altitude(m)": 714633.6294519348,
        "Argument of Periapsis(deg)": 0.009351888974283276,
        "Eccentricity": 0.0,
        "Inclination(deg)": 45.0,
        "Latitude(deg)": -37.28488940005921,
        "Longitude(deg)": -146.4038848700217,
        "Mean Anomaly(deg)": 238.5602778789843,
        "RAAN(deg)": 84.99117209017116,
        "Satellite Name": "Constellation 1 388",
        "Satellite Number": 388,
        "Semi-Major Axis(m)": 7083131.272910544,
        "Time(s)": 156
    },
    {
        "Altitude(m)": 714645.1453804808,
        "Argument of Periapsis(deg)": 0.00941183698052868,
        "Eccentricity": 0.0,
        "Inclination(deg)": 45.0,
        "Latitude(deg)": -37.31292825284778,
        "Longitude(deg)": -146.34058991412448,
        "Mean Anomaly(deg)": 238.62097901923423,
        "RAAN(deg)": 84.9911155010056,
        "Satellite Name": "Constellation 1 388",
        "Satellite Number": 388,
        "Semi-Major Axis(m)": 7083131.272910544,
        "Time(s)": 157
    },
    {
        "Altitude(m)": 714656.6467573304,
        "Argument of Periapsis(deg)": 0.009471784986774088,
        "Eccentricity": 0.0,
        "Inclination(deg)": 45.0,
        "Latitude(deg)": -37.34092851775142,
        "Longitude(deg)": -146.27724505372186,
        "Mean Anomaly(deg)": 238.6816801594841,
        "RAAN(deg)": 84.99105891184001,
        "Satellite Name": "Constellation 1 388",
        "Satellite Number": 388,
        "Semi-Major Axis(m)": 7083131.272910544,
        "Time(s)": 158
    },
    {
        "Altitude(m)": 714668.133540847,
        "Argument of Periapsis(deg)": 0.009531732993019492,
        "Eccentricity": 0.0,
        "Inclination(deg)": 45.0,
        "Latitude(deg)": -37.368890128170925,
        "Longitude(deg)": -146.21385026983384,
        "Mean Anomaly(deg)": 238.74238129973398,
        "RAAN(deg)": 84.99100232267446,
        "Satellite Name": "Constellation 1 388",
        "Satellite Number": 388,
        "Semi-Major Axis(m)": 7083131.272910544,
        "Time(s)": 159
    },
    {
        "Altitude(m)": 714679.6056894371,
        "Argument of Periapsis(deg)": 0.009591680999264898,
        "Eccentricity": 0.0,
        "Inclination(deg)": 45.0,
        "Latitude(deg)": -37.3968130174647,
        "Longitude(deg)": -146.1504055437847,
        "Mean Anomaly(deg)": 238.80308243998385,
        "RAAN(deg)": 84.9909457335089,
        "Satellite Name": "Constellation 1 388",
        "Satellite Number": 388,
        "Semi-Major Axis(m)": 7083131.272910544,
        "Time(s)": 160
    },
    {
        "Altitude(m)": 714691.0631615621,
        "Argument of Periapsis(deg)": 0.009651629005510304,
        "Eccentricity": 0.0,
        "Inclination(deg)": 45.0,
        "Latitude(deg)": -37.42469711894938,
        "Longitude(deg)": -146.08691085720443,
        "Mean Anomaly(deg)": 238.86378358023376,
        "RAAN(deg)": 84.99088914434331,
        "Satellite Name": "Constellation 1 388",
        "Satellite Number": 388,
        "Semi-Major Axis(m)": 7083131.272910544,
        "Time(s)": 161
    },
    {
        "Altitude(m)": 714702.5059157343,
        "Argument of Periapsis(deg)": 0.00971157701175571,
        "Eccentricity": 0.0,
        "Inclination(deg)": 45.0,
        "Latitude(deg)": -37.452542365899994,
        "Longitude(deg)": -146.02336619202984,
        "Mean Anomaly(deg)": 238.9244847204837,
        "RAAN(deg)": 84.99083255517775,
        "Satellite Name": "Constellation 1 388",
        "Satellite Number": 388,
        "Semi-Major Axis(m)": 7083131.272910544,
        "Time(s)": 162
    },
    {
        "Altitude(m)": 714713.9339105079,
        "Argument of Periapsis(deg)": 0.009771525018001118,
        "Eccentricity": 0.0,
        "Inclination(deg)": 45.0,
        "Latitude(deg)": -37.48034869154999,
        "Longitude(deg)": -145.95977169860362,
        "Mean Anomaly(deg)": 238.98518586073362,
        "RAAN(deg)": 84.99077596601218,
        "Satellite Name": "Constellation 1 388",
        "Satellite Number": 388,
        "Semi-Major Axis(m)": 7083131.272910544,
        "Time(s)": 163
    },
    {
        "Altitude(m)": 714725.3471044931,
        "Argument of Periapsis(deg)": 0.00983147302424652,
        "Eccentricity": 0.0,
        "Inclination(deg)": 45.0,
        "Latitude(deg)": -37.5081160290928,
        "Longitude(deg)": -145.89612702328702,
        "Mean Anomaly(deg)": 239.04588700098347,
        "RAAN(deg)": 84.9907193768466,
        "Satellite Name": "Constellation 1 388",
        "Satellite Number": 388,
        "Semi-Major Axis(m)": 7083131.272910544,
        "Time(s)": 164
    },
    {
        "Altitude(m)": 714736.7454563492,
        "Argument of Periapsis(deg)": 0.009891421030491928,
        "Eccentricity": 0.0,
        "Inclination(deg)": 45.0,
        "Latitude(deg)": -37.535844311680634,
        "Longitude(deg)": -145.83243231704367,
        "Mean Anomaly(deg)": 239.10658814123337,
        "RAAN(deg)": 84.99066278768105,
        "Satellite Name": "Constellation 1 388",
        "Satellite Number": 388,
        "Semi-Major Axis(m)": 7083131.272910544,
        "Time(s)": 165
    },
    {
        "Altitude(m)": 714748.1289247787,
        "Argument of Periapsis(deg)": 0.009951369036737332,
        "Eccentricity": 0.0,
        "Inclination(deg)": 45.0,
        "Latitude(deg)": -37.56353347242587,
        "Longitude(deg)": -145.76868756305288,
        "Mean Anomaly(deg)": 239.1672892814833,
        "RAAN(deg)": 84.99060619851547,
        "Satellite Name": "Constellation 1 388",
        "Satellite Number": 388,
        "Semi-Major Axis(m)": 7083131.272910544,
        "Time(s)": 166
    },
    {
        "Altitude(m)": 714759.4974685442,
        "Argument of Periapsis(deg)": 0.010011317042982738,
        "Eccentricity": 0.0,
        "Inclination(deg)": 45.0,
        "Latitude(deg)": -37.59118344440088,
        "Longitude(deg)": -145.7048927448085,
        "Mean Anomaly(deg)": 239.22799042173318,
        "RAAN(deg)": 84.9905496093499,
        "Satellite Name": "Constellation 1 388",
        "Satellite Number": 388,
        "Semi-Major Axis(m)": 7083131.272910544,
        "Time(s)": 167
    },
    {
        "Altitude(m)": 714770.8510464511,
        "Argument of Periapsis(deg)": 0.010071265049228144,
        "Eccentricity": 0.0,
        "Inclination(deg)": 45.0,
        "Latitude(deg)": -37.61879416063884,
        "Longitude(deg)": -145.6410478461195,
        "Mean Anomaly(deg)": 239.288691561983,
        "RAAN(deg)": 84.99049302018433,
        "Satellite Name": "Constellation 1 388",
        "Satellite Number": 388,
        "Semi-Major Axis(m)": 7083131.272910544,
        "Time(s)": 168
    },
    {
        "Altitude(m)": 714782.1896173607,
        "Argument of Periapsis(deg)": 0.01013121305547355,
        "Eccentricity": 0.0,
        "Inclination(deg)": 45.0,
        "Latitude(deg)": -37.646365554134,
        "Longitude(deg)": -145.57715285111166,
        "Mean Anomaly(deg)": 239.34939270223293,
        "RAAN(deg)": 84.99043643101875,
        "Satellite Name": "Constellation 1 388",
        "Satellite Number": 388,
        "Semi-Major Axis(m)": 7083131.272910544,
        "Time(s)": 169
    },
    {
        "Altitude(m)": 714793.5131401834,
        "Argument of Periapsis(deg)": 0.010191161061718957,
        "Eccentricity": 0.0,
        "Inclination(deg)": 45.0,
        "Latitude(deg)": -37.67389755784174,
        "Longitude(deg)": -145.51320774422967,
        "Mean Anomaly(deg)": 239.4100938424829,
        "RAAN(deg)": 84.99037984185318,
        "Satellite Name": "Constellation 1 388",
        "Satellite Number": 388,
        "Semi-Major Axis(m)": 7083131.272910544,
        "Time(s)": 170
    }
]